STARLINK-32359          
1 61957U 24209U   26068.47922661  .00014063  00000+0  48615-3 0  9994
2 61957  53.1574 143.4521 0001179 110.0444 250.0684 15.30190850 74881
TEVEL2-3                
1 63218U 25052J   26068.64540225  .00020365  00000+0  69446-3 0  9991
2 63218  97.3994 324.7775 0004761 105.7353 254.4413 15.30377031 54855
